*******************************************************************************
 Revised: July 31, 2013                  Sun                                 10

 PHYSICAL PROPERTIES (updated 2024-Mar-04):
  GM, km^3/s^2          = 132712440041.93938  Mass, 10^24 kg        = ~1988500
  Vol. mean radius, km  = 695700              Volume, 10^12 km^3    = 1412000
  Solar radius (IAU2015)= 695700 km           Mean density, g/cm^3  = 1.408
  Radius (photosphere)  = 696500 km           Angular diam at 1 AU  = 1919.3"
  Photosphere temp., K  = 6600 (bottom)       Photosphere temp., K  = 4400(top)
  Photospheric depth    = ~500 km             Chromospheric depth   = ~2500 km
  Flatness, f           = 0.00005             Adopted sid. rot. per.= 25.38 d
  Surface gravity       =  274.0 m/s^2        Escape speed, km/s    =  617.7
  Pole (RA,DEC), deg.   = (286.13, 63.87)     Obliquity to ecliptic = 7.25 deg.
  Solar constant (1 AU) = 1367.6 W/m^2        Luminosity, 10^24 J/s = 382.8
  Mass-energy conv rate = 4.260 x 10^9 kg/s   Effective temp, K     = 5772
  Sunspot cycle         = 11.4 yr             Cycle 24 sunspot min. = 2008 A.D.

  Motion relative to nearby stars = apex : R.A.= 271 deg.; DEC.= +30 deg.
                                    speed: 19.4 km/s (0.0112 au/day)
  Motion relative to 2.73K BB/CBR = apex : l= 264.7 +- 0.8; b= 48.2 +- 0.5 deg.
                                    speed: 369 +-11 km/s
*******************************************************************************


*******************************************************************************
Ephemeris / WWW_USER Wed Apr 17 07:45:28 2024 Pasadena, USA      / Horizons
*******************************************************************************
Target body name: Sun (10)                        {source: DE441}
Center body name: Solar System Barycenter (0)     {source: DE441}
Center-site name: BODY CENTER
*******************************************************************************
Start time      : A.D. 2024-Apr-17 00:00:00.0000 TDB
Stop  time      : A.D. 2024-May-17 00:00:00.0000 TDB
Step-size       : 1440 minutes
*******************************************************************************
Center geodetic : 0.0, 0.0, 0.0                   {E-lon(deg),Lat(deg),Alt(km)}
Center cylindric: 0.0, 0.0, 0.0                   {E-lon(deg),Dxy(km),Dz(km)}
Center radii    : (undefined)
Output units    : KM-S
Calendar mode   : Mixed Julian/Gregorian
Output type     : GEOMETRIC cartesian states
Output format   : 3 (position, velocity, LT, range, range-rate)
Reference frame : Ecliptic of J2000.0
*******************************************************************************
JDTDB
   X     Y     Z
   VX    VY    VZ
   LT    RG    RR
*******************************************************************************
$$SOE
2460441.500000000 = A.D. 2024-May-11 00:00:00.0000 TDB 
 X =-1.087147169349628E+06 Y =-5.630519447098261E+05 Z = 3.027958999081765E+04
 VX= 1.012779113088780E-02 VY=-1.041462965043795E-02 VZ=-1.350413633877359E-04
 LT= 4.085082154267153E+00 RG= 1.224676820159685E+06 RR=-4.205608282878122E-03
2460442.500000000 = A.D. 2024-May-12 00:00:00.0000 TDB 
 X =-1.086271555994111E+06 Y =-5.639510905494264E+05 Z = 3.026790104452762E+04
 VX= 1.014103301779187E-02 VY=-1.039892189688838E-02 VZ=-1.355358388457064E-04
 LT= 4.083869329751700E+00 RG= 1.224313224517074E+06 RR=-4.210960605058944E-03
2460443.500000000 = A.D. 2024-May-13 00:00:00.0000 TDB 
 X =-1.085394799463189E+06 Y =-5.648488767615746E+05 Z = 3.025616944363862E+04
 VX= 1.015425341276182E-02 VY=-1.038315677939177E-02 VZ=-1.360287249205765E-04
 LT= 4.082654960051169E+00 RG= 1.223949165639632E+06 RR=-4.216331246092026E-03
2460444.500000000 = A.D. 2024-May-14 00:00:00.0000 TDB 
 X =-1.084516901641726E+06 Y =-5.657452983857790E+05 Z = 3.024439532897441E+04
 VX= 1.016745168018331E-02 VY=-1.036733419005611E-02 VZ=-1.365199403306427E-04
 LT= 4.081439039938263E+00 RG= 1.223584641960252E+06 RR=-4.221719858902437E-03
2460445.500000000 = A.D. 2024-May-15 00:00:00.0000 TDB 
 X =-1.083637864466514E+06 Y =-5.666403504495135E+05 Z = 3.023257884846517E+04
 VX= 1.018062725322265E-02 VY=-1.035145395552077E-02 VZ=-1.370094015946395E-04
 LT= 4.080221564272432E+00 RG= 1.223219651937837E+06 RR=-4.227126189428619E-03
2460446.500000000 = A.D. 2024-May-16 00:00:00.0000 TDB 
 X =-1.082757689920466E+06 Y =-5.675340279618420E+05 Z = 3.022072015740915E+04
 VX= 1.019377963046299E-02 VY=-1.033551582002098E-02 VZ=-1.374970213337688E-04
 LT= 4.079002527972338E+00 RG= 1.222854194049041E+06 RR=-4.232550081629107E-03
2460447.500000000 = A.D. 2024-May-17 00:00:00.0000 TDB 
 X =-1.081876380027171E+06 Y =-5.684263259055056E+05 Z = 3.020881941889352E+04
 VX= 1.020690837055458E-02 VY=-1.031951942674565E-02 VZ=-1.379827062551638E-04
 LT= 4.077781925986971E+00 RG= 1.222488266779608E+06 RR=-4.237991481630564E-03
